REAL                    
1 64875U 25154G   26068.72233414  .00022901  00000+0  82904-3 0  9994
2 64875  97.4133 137.2581 0001853 118.5876 241.5550 15.28408058 34830
STARLINK-35407          
1 66334U 25253R   26068.46894423  .00025768  00000+0  94236-3 0  9995
2 66334  42.9964 213.5000 0001637 213.2147 146.8603 15.27588831 20217
